NETSAT-3                
1 46505U 20068V   26068.90630688  .00023315  00000+0  60372-3 0  9992
2 46505  97.8682  67.7818 0004980 358.0585   2.0638 15.39054188300392
STARLINK-1821           
1 46718U 20073BA  26068.72991937  .00083201  00000+0  21811-2 0  9995
2 46718  53.0488 226.3874 0004148 156.9798 203.1391 15.37970474297352
